IRIDIUM 159             
1 43578U 18061K   24349.77915060 -.00000023  00000+0 -15146-4 0  9997
2 43578  86.3953 286.2815 0002115  86.8377 273.3061 14.34217074334637
IRIDIUM 180             
1 43922U 19002A   24350.89494763  .00000541  00000+0  18622-3 0  9997
2 43922  86.3987 222.6894 0001993  84.1003 276.0420 14.34218571310409
IRIDIUM 176             
1 43923U 19002B   24350.93149371  .00001869  00000+0  29245-3 0  9992
2 43923  86.6115 222.6815 0003043  75.4239 284.7316 14.72262313318583
IRIDIUM 168             
1 43924U 19002C   24350.88860021  .00000512  00000+0  17593-3 0  9996
2 43924  86.3988 222.7539 0002021  85.3071 274.8355 14.34214609310388
IRIDIUM 173             
1 43925U 19002D   24350.73637630  .00000276  00000+0  91490-4 0  9995
2 43925  86.3987 222.7290 0002023  82.3110 277.8315 14.34218302310344
IRIDIUM 169             
1 43926U 19002E   24350.80500291  .00000742  00000+0  23607-3 0  9998
2 43926  86.4229 254.3133 0002430  40.0935 320.0442 14.38606006311383
IRIDIUM 172             
1 43927U 19002F   24350.93933984  .00000192  00000+0  61514-4 0  9991
2 43927  86.3985 222.6502 0002122  85.8066 274.3372 14.34218483310386
IRIDIUM 175             
1 43928U 19002G   24350.85813760  .00000725  00000+0  11112-3 0  9992
2 43928  86.1525 185.6469 0000831  52.0598 308.0693 14.72232436318561
